[
    {
        "OBJECT_NAME": "BEIDOU-2 IGSO-5",
        "OBJECT_ID": "2011-073A",
        "EPOCH": "2025-03-10T13:01:15.599424",
        "MEAN_MOTION": 1.00271385,
        "ECCENTRICITY": 0.0100961,
        "INCLINATION": 48.5228,
        "RA_OF_ASC_NODE": 277.2543,
        "ARG_OF_PERICENTER": 219.5074,
        "MEAN_ANOMALY": 323.3092,
        "EPHEMERIS_TYPE": 0,
        "CLASSIFICATION_TYPE": "U",
        "NORAD_CAT_ID": 37948,
        "ELEMENT_SET_NO": 999,
        "REV_AT_EPOCH": 4848,
        "BSTAR": 0,
        "MEAN_MOTION_DOT": -1.41e-06,
        "MEAN_MOTION_DDOT": 0
    },
    {
        "OBJECT_NAME": "BEIDOU-2 G5",
        "OBJECT_ID": "2012-008A",
        "EPOCH": "2025-03-10T21:12:51.769728",
        "MEAN_MOTION": 1.00272129,
        "ECCENTRICITY": 0.0013303,
        "INCLINATION": 2.4189,
        "RA_OF_ASC_NODE": 71.2439,
        "ARG_OF_PERICENTER": 250.9382,
        "MEAN_ANOMALY": 223.493,
        "EPHEMERIS_TYPE": 0,
        "CLASSIFICATION_TYPE": "U",
        "NORAD_CAT_ID": 38091,
        "ELEMENT_SET_NO": 999,
        "REV_AT_EPOCH": 4783,
        "BSTAR": 0,
        "MEAN_MOTION_DOT": 4.1e-07,
        "MEAN_MOTION_DDOT": 0
    },
    {
        "OBJECT_NAME": "BEIDOU-2 M3",
        "OBJECT_ID": "2012-018A",
        "EPOCH": "2025-03-10T06:14:55.955904",
        "MEAN_MOTION": 1.86233696,
        "ECCENTRICITY": 0.0021929,
        "INCLINATION": 56.1427,
        "RA_OF_ASC_NODE": 320.4629,
        "ARG_OF_PERICENTER": 273.6275,
        "MEAN_ANOMALY": 86.1707,
        "EPHEMERIS_TYPE": 0,
        "CLASSIFICATION_TYPE": "U",
        "NORAD_CAT_ID": 38250,
        "ELEMENT_SET_NO": 999,
        "REV_AT_EPOCH": 8730,
        "BSTAR": 0,
        "MEAN_MOTION_DOT": -7.4e-07,
        "MEAN_MOTION_DDOT": 0
    },
    {
        "OBJECT_NAME": "BEIDOU-2 M4",
        "OBJECT_ID": "2012-018B",
        "EPOCH": "2025-03-08T13:56:23.539200",
        "MEAN_MOTION": 1.86232091,
        "ECCENTRICITY": 0.0013008,
        "INCLINATION": 56.0482,
        "RA_OF_ASC_NODE": 319.7705,
        "ARG_OF_PERICENTER": 280.0851,
        "MEAN_ANOMALY": 79.8135,
        "EPHEMERIS_TYPE": 0,
        "CLASSIFICATION_TYPE": "U",
        "NORAD_CAT_ID": 38251,
        "ELEMENT_SET_NO": 999,
        "REV_AT_EPOCH": 8727,
        "BSTAR": 0,
        "MEAN_MOTION_DOT": -7.6e-07,
        "MEAN_MOTION_DDOT": 0
    },
    {
        "OBJECT_NAME": "BEIDOU-2 M6",
        "OBJECT_ID": "2012-050B",
        "EPOCH": "2025-03-09T21:38:17.593728",
        "MEAN_MOTION": 1.86231,
        "ECCENTRICITY": 0.0014164,
        "INCLINATION": 56.136,
        "RA_OF_ASC_NODE": 78.2942,
        "ARG_OF_PERICENTER": 335.2921,
        "MEAN_ANOMALY": 24.682,
        "EPHEMERIS_TYPE": 0,
        "CLASSIFICATION_TYPE": "U",
        "NORAD_CAT_ID": 38775,
        "ELEMENT_SET_NO": 999,
        "REV_AT_EPOCH": 8466,
        "BSTAR": 0,
        "MEAN_MOTION_DOT": 1e-07,
        "MEAN_MOTION_DDOT": 0
    },
    {
        "OBJECT_NAME": "BEIDOU-2 G6",
        "OBJECT_ID": "2012-059A",
        "EPOCH": "2025-03-10T20:16:18.845184",
        "MEAN_MOTION": 1.00274908,
        "ECCENTRICITY": 0.001012,
        "INCLINATION": 3.2417,
        "RA_OF_ASC_NODE": 78.2526,
        "ARG_OF_PERICENTER": 298.3888,
        "MEAN_ANOMALY": 180.1298,
        "EPHEMERIS_TYPE": 0,
        "CLASSIFICATION_TYPE": "U",
        "NORAD_CAT_ID": 38953,
        "ELEMENT_SET_NO": 999,
        "REV_AT_EPOCH": 4526,
        "BSTAR": 0,
        "MEAN_MOTION_DOT": -1.91e-06,
        "MEAN_MOTION_DDOT": 0
    },
    {
        "OBJECT_NAME": "BEIDOU-3S IGSO-1S",
        "OBJECT_ID": "2015-019A",
        "EPOCH": "2025-03-05T15:06:10.505664",
        "MEAN_MOTION": 1.00246947,
        "ECCENTRICITY": 0.0033884,
        "INCLINATION": 50.079,
        "RA_OF_ASC_NODE": 301.0843,
        "ARG_OF_PERICENTER": 194.8569,
        "MEAN_ANOMALY": 344.39,
        "EPHEMERIS_TYPE": 0,
        "CLASSIFICATION_TYPE": "U",
        "NORAD_CAT_ID": 40549,
        "ELEMENT_SET_NO": 999,
        "REV_AT_EPOCH": 3636,
        "BSTAR": 0,
        "MEAN_MOTION_DOT": -1.34e-06,
        "MEAN_MOTION_DDOT": 0
    },
    {
        "OBJECT_NAME": "BEIDOU-3S M2S",
        "OBJECT_ID": "2015-037A",
        "EPOCH": "2025-03-08T18:47:14.454816",
        "MEAN_MOTION": 1.86229086,
        "ECCENTRICITY": 0.0009181,
        "INCLINATION": 55.2722,
        "RA_OF_ASC_NODE": 318.018,
        "ARG_OF_PERICENTER": 271.2088,
        "MEAN_ANOMALY": 88.7323,
        "EPHEMERIS_TYPE": 0,
        "CLASSIFICATION_TYPE": "U",
        "NORAD_CAT_ID": 40748,
        "ELEMENT_SET_NO": 999,
        "REV_AT_EPOCH": 6545,
        "BSTAR": 0,
        "MEAN_MOTION_DOT": -7.2e-07,
        "MEAN_MOTION_DDOT": 0
    },
    {
        "OBJECT_NAME": "BEIDOU-3S M1S",
        "OBJECT_ID": "2015-037B",
        "EPOCH": "2025-03-06T08:46:13.766304",
        "MEAN_MOTION": 1.86253667,
        "ECCENTRICITY": 0.0004486,
        "INCLINATION": 55.2709,
        "RA_OF_ASC_NODE": 318.0937,
        "ARG_OF_PERICENTER": 10.3321,
        "MEAN_ANOMALY": 349.722,
        "EPHEMERIS_TYPE": 0,
        "CLASSIFICATION_TYPE": "U",
        "NORAD_CAT_ID": 40749,
        "ELEMENT_SET_NO": 999,
        "REV_AT_EPOCH": 6541,
        "BSTAR": 0,
        "MEAN_MOTION_DOT": -7.4e-07,
        "MEAN_MOTION_DDOT": 0
    },
    {
        "OBJECT_NAME": "BEIDOU-3S IGSO-2S",
        "OBJECT_ID": "2015-053A",
        "EPOCH": "2025-02-12T02:05:38.628096",
        "MEAN_MOTION": 1.00251841,
        "ECCENTRICITY": 0.0052128,
        "INCLINATION": 49.9805,
        "RA_OF_ASC_NODE": 264.5883,
        "ARG_OF_PERICENTER": 186.8108,
        "MEAN_ANOMALY": 174.8851,
        "EPHEMERIS_TYPE": 0,
        "CLASSIFICATION_TYPE": "U",
        "NORAD_CAT_ID": 40938,
        "ELEMENT_SET_NO": 999,
        "REV_AT_EPOCH": 3444,
        "BSTAR": 0,
        "MEAN_MOTION_DOT": -6.6e-07,
        "MEAN_MOTION_DDOT": 0
    },
    {
        "OBJECT_NAME": "BEIDOU-2 IGSO-6",
        "OBJECT_ID": "2016-021A",
        "EPOCH": "2025-03-10T17:55:03.310176",
        "MEAN_MOTION": 1.00263145,
        "ECCENTRICITY": 0.0053681,
        "INCLINATION": 59.575,
        "RA_OF_ASC_NODE": 42.6616,
        "ARG_OF_PERICENTER": 230.4598,
        "MEAN_ANOMALY": 259.6368,
        "EPHEMERIS_TYPE": 0,
        "CLASSIFICATION_TYPE": "U",
        "NORAD_CAT_ID": 41434,
        "ELEMENT_SET_NO": 999,
        "REV_AT_EPOCH": 3283,
        "BSTAR": 0,
        "MEAN_MOTION_DOT": -1.38e-06,
        "MEAN_MOTION_DDOT": 0
    }
]