BEIDOU-2 IGSO-5 (C10)   
1 37948U 11073A   25069.54254166 -.00000141  00000+0  00000+0 0  9993
2 37948  48.5228 277.2543 0100961 219.5074 323.3092  1.00271385 48480
BEIDOU-2 G5 (C05)       
1 38091U 12008A   25069.88393252  .00000041  00000+0  00000+0 0  9997
2 38091   2.4189  71.2439 0013303 250.9382 223.4930  1.00272129 47831
BEIDOU-2 M3 (C11)       
1 38250U 12018A   25069.26036986 -.00000074  00000+0  00000+0 0  9992
2 38250  56.1427 320.4629 0021929 273.6275  86.1707  1.86233696 87307
BEIDOU-2 M4 (C12)       
1 38251U 12018B   25067.58082800 -.00000076  00000+0  00000+0 0  9994
2 38251  56.0482 319.7705 0013008 280.0851  79.8135  1.86232091 87273
BEIDOU-2 M6 (C14)       
1 38775U 12050B   25068.90159252  .00000010  00000+0  00000+0 0  9991
2 38775  56.1360  78.2942 0014164 335.2921  24.6820  1.86231000 84663
BEIDOU-2 G6 (C02)       
1 38953U 12059A   25069.84466256 -.00000191  00000+0  00000+0 0  9998
2 38953   3.2417  78.2526 0010120 298.3888 180.1298  1.00274908 45264
BEIDOU-3S IGSO-1S (C31) 
1 40549U 15019A   25064.62928826 -.00000134  00000+0  00000+0 0  9995
2 40549  50.0790 301.0843 0033884 194.8569 344.3900  1.00246947 36366
BEIDOU-3S M2S (C58)     
1 40748U 15037A   25067.78280619 -.00000072  00000+0  00000+0 0  9998
2 40748  55.2722 318.0180 0009181 271.2088  88.7323  1.86229086 65459
BEIDOU-3S M1S (C57)     
1 40749U 15037B   25065.36543711 -.00000074  00000+0  00000+0 0  9998
2 40749  55.2709 318.0937 0004486  10.3321 349.7220  1.86253667 65414
BEIDOU-3S IGSO-2S (C56) 
1 40938U 15053A   25043.08725264 -.00000066  00000+0  00000+0 0  9997
2 40938  49.9805 264.5883 0052128 186.8108 174.8851  1.00251841 34448
BEIDOU-2 IGSO-6 (C13)   
1 41434U 16021A   25069.74656609 -.00000138  00000+0  00000+0 0  9992
2 41434  59.5750  42.6616 0053681 230.4598 259.6368  1.00263145 32835
